{"type":"FeatureCollection","features":[{"type":"Feature","geometry":{"type":"Point","coordinates":[-93.2788513124876,44.8739101406372]},"properties":{"kind":"relief","city":"Richfield","name":"Augsburg Park Library","address":"7100 Nicollet Ave","type":"Library","hours":"Mon/Tues/Wed 12pm-8pm, Thur/Fri/Sat 9am-5pm, Sun 12pm-5pm.","phone":"612-543-6200","website":"https://www.hclib.org/about/locations/augsburg-park","notes":null,"free":true}},{"type":"Feature","geometry":{"type":"Point","coordinates":[-93.3107915205535,45.0662883226765]},"properties":{"kind":"relief","city":"Brooklyn Center","name":"Brookdale Library","address":"6125 Shingle Creek Parkway","type":"Library","hours":"Mon/Tues/Wed/Thu 9am-8pm, Fri/Sat 9am-5pm, Sun 12pm-5pm.","phone":"612-543-5600","website":"https://www.hclib.org/about/locations/brookdale","notes":null,"free":true}},{"type":"Feature","geometry":{"type":"Point","coordinates":[-93.3755746592617,45.1102461041691]},"properties":{"kind":"relief","city":"Brooklyn Park","name":"Brooklyn Park Library","address":"8500 W. Broadway Ave","type":"Library","hours":"Mon/Tues/Wed/Thu 9am-8pm, Fri/Sat 9am-5pm, Sun 12pm-5pm.","phone":"612-543-6225","website":"https://www.hclib.org/about/locations/brooklyn-park","notes":null,"free":true}},{"type":"Feature","geometry":{"type":"Point","coordinates":[-93.2700963748333,44.980602642047]},"properties":{"kind":"relief","city":"Minneapolis","name":"Minneapolis Central Library","address":"300 Nicollet Mall","type":"Library","hours":"Mon/Tues/Wed/Thu 9am-8pm, Fri/Sat 9am-5pm, Sun 12pm-5pm.","phone":"612-543-8000","website":"https://www.hclib.org/about/locations/minneapolis-central","notes":null,"free":true}},{"type":"Feature","geometry":{"type":"Point","coordinates":[-93.39408875624,45.1747314028338]},"properties":{"kind":"relief","city":"Champlin","name":"Champlin Library","address":"12154 Ensign Avenue N","type":"Library","hours":"Mon/Wed/Fri/Sat 9am-5pm, Tue/Th 12pm-8pm; closed Sun","phone":"612-543-6250","website":"https://www.hclib.org/about/locations/champlin","notes":null,"free":true}},{"type":"Feature","geometry":{"type":"Point","coordinates":[-93.2469760936452,45.0394979303998]},"properties":{"kind":"relief","city":"Columbia Heights","name":"Columbia Heights Public Library","address":"3939 Central Ave N","type":"Library","hours":"Mon/Tues/Wed/Thu 10am-7pm, Fri/Sat 10am-5pm, Sun-closed.","phone":"763-706-3690","website":"https://chplmn.org/","notes":null,"free":true}},{"type":"Feature","geometry":{"type":"Point","coordinates":[-93.7883641682774,45.0408065429831]},"properties":{"kind":"relief","city":"Delano","name":"Great River Regional Library - Delano","address":"160 Railroad Ave E","type":"Library","hours":"Mon/Thu/Fri 10am-6pm, Tue 10am-8pm, Wed 1pm-8pm, Sat 10am-1pm; closed Sun","phone":"763-972-3467","website":"https://www.griver.org/locations-and-hours/great-river-regional-library-delano","notes":null,"free":true}},{"type":"Feature","geometry":{"type":"Point","coordinates":[-93.231989520704,44.9480414346014]},"properties":{"kind":"relief","city":"Minneapolis","name":"East Lake Library","address":"2727 East Lake St.","type":"Library","hours":"Mon/Tues/Wed 12pm-8pm, Thu/Fri/Sat 9am-5pm, Sun 12pm-5pm.","phone":"612-543-8425","website":"https://www.hclib.org/about/locations/east-lake","notes":null,"free":true}},{"type":"Feature","geometry":{"type":"Point","coordinates":[-93.3559602914466,44.9079499826985]},"properties":{"kind":"relief","city":"Edina","name":"Edina Library","address":"5280 Grandview Square","type":"Library","hours":"Mon/Tues/Wed 12pm-8pm, Thu/Fri/Sat 9am-5pm, Sun 12pm-5pm.","phone":"612-543-6325","website":"https://www.hclib.org/about/locations/edina","notes":null,"free":true}},{"type":"Feature","geometry":{"type":"Point","coordinates":[-93.5674451085285,44.9015595520063]},"properties":{"kind":"relief","city":"Excelsior","name":"Excelsior Library","address":"337 Water St.","type":"Library","hours":"Mon/Thu 12pm-8pm, Tue/Wed/Fri/Sat 9am-5pm; closed Sun","phone":"612-543-6350","website":"https://www.hclib.org/about/locations/excelsior","notes":null,"free":true}},{"type":"Feature","geometry":{"type":"Point","coordinates":[-93.2559038692005,44.9630143994161]},"properties":{"kind":"relief","city":"Minneapolis","name":"Franklin Library","address":"1314 East Franklin Ave.","type":"Library","hours":"Mon/Fri/Sat 9am-5pm, Tue/Wed/Thu 12pm-8pm, Sun 12pm-5pm","phone":"612-543-6925","website":"https://www.hclib.org/about/locations/franklin","notes":null,"free":true}},{"type":"Feature","geometry":{"type":"Point","coordinates":[-93.2602902904434,45.0856868867461]},"properties":{"kind":"relief","city":"Fridley","name":"Mississippi Library","address":"410 Mississippi St NE","type":"Library","hours":"Mon/Thu 11am-7pm, Tue/Wed 10am-6pm, Fri/Sat 10am-5pm; closed Sun","phone":"763-324-1560","website":"https://www.anokacounty.us/2590/Mississippi-Library","notes":null,"free":true}},{"type":"Feature","geometry":{"type":"Point","coordinates":[-93.3795399428924,44.9882993931759]},"properties":{"kind":"relief","city":"Golden Valley","name":"Golden Valley Library","address":"830 Winnetka Avenue North","type":"Library","hours":"Mon/Tues/Wed 12pm-8pm, Thu/Fri/Sat 9am-5pm, Sun 12pm-5pm","phone":"612-543-6375","website":"https://www.hclib.org/about/locations/golden-valley","notes":null,"free":true}},{"type":"Feature","geometry":{"type":"Point","coordinates":[-93.4142654654231,44.9255152157106]},"properties":{"kind":"relief","city":"Hopkins","name":"Hopkins Library","address":"22 11th Ave N","type":"Library","hours":"Mon/Tues/Wed 12pm-8pm, Thu/Fri/Sat 9am-5pm, Sun 12pm-5pm","phone":"612-543-6400","website":"https://www.hclib.org/about/locations/hopkins","notes":null,"free":true}},{"type":"Feature","geometry":{"type":"Point","coordinates":[-93.3165220042818,44.9250531926528]},"properties":{"kind":"relief","city":"Minneapolis","name":"Linden Hills Library","address":"2900 W 43rd St","type":"Library","hours":"Mon/Wed/Fri/Sat 9am-5pm, Tue/Thu 12pm-8pm; closed Sun.","phone":"612-543-6825","website":"https://www.hclib.org/about/locations/linden-hills","notes":null,"free":true}},{"type":"Feature","geometry":{"type":"Point","coordinates":[-93.5716284794237,44.9856790876874]},"properties":{"kind":"relief","city":"Long Lake","name":"Long Lake Library","address":"1865 Wayzata Blvd. W","type":"Library","hours":"Mon 12pm-8pm, Wed/Fri 9am-5pm; closed Tue/Thu/Sat/Sun.","phone":"612-543-6425","website":"https://www.hclib.org/about/locations/long-lake","notes":null,"free":true}},{"type":"Feature","geometry":{"type":"Point","coordinates":[-93.4413742107526,45.1021974214675]},"properties":{"kind":"relief","city":"Maple Grove","name":"Maple Grove Library","address":"8001 Main St N","type":"Library","hours":"Mon/Tues/Wed/Thu 9am-8pm, Fri/Sat 9am-5pm, Sun 12pm-5pm","phone":"612-543-6450","website":"https://www.hclib.org/about/locations/maple-grove","notes":null,"free":true}},{"type":"Feature","geometry":{"type":"Point","coordinates":[-93.6554490586582,45.0077551291627]},"properties":{"kind":"relief","city":"Maple Plain","name":"Maple Plain Library","address":"5184 Main St E","type":"Library","hours":"Tue 12pm-8pm, Wed/Thu/Fri/Sat 9am-5pm; closed Sun/Mon.","phone":"612-543-5700","website":"https://www.hclib.org/about/locations/maple-plain","notes":null,"free":true}},{"type":"Feature","geometry":{"type":"Point","coordinates":[-93.5028428683819,44.9086784631323]},"properties":{"kind":"relief","city":"Minnetonka","name":"Minnetonka Library","address":"17524 Excelsior Blvd","type":"Library","hours":"Mon/Tue 12pm-8pm, Wed/Thu/Fri/Sat 9am-5pm; closed Sun.","phone":"612-543-5725","website":"https://www.hclib.org/about/locations/minnetonka","notes":null,"free":true}},{"type":"Feature","geometry":{"type":"Point","coordinates":[-93.2232553527861,44.9105314701162]},"properties":{"kind":"relief","city":"Minneapolis","name":"Nokomis Library","address":"5100 34th Ave. S.","type":"Library","hours":"Mon/Thu 12pm-8pm, Tue/Wed/Fri/Sat 9am-5pm; closed Sun.","phone":"612-543-6800","website":"https://www.hclib.org/about/locations/nokomis","notes":null,"free":true}},{"type":"Feature","geometry":{"type":"Point","coordinates":[-93.2963061845421,45.012810326025]},"properties":{"kind":"relief","city":"Minneapolis","name":"North Regional Library","address":"1315 Lowry Ave. N","type":"Library","hours":"Mon/Tue/Thu 12pm-8pm, Wed/Fri/Sat 9am-5pm, Sun 12pm-5pm.","phone":"612-543-8450","website":"https://www.hclib.org/about/locations/north-regional","notes":null,"free":true}},{"type":"Feature","geometry":{"type":"Point","coordinates":[-93.2478710534953,45.0102293434133]},"properties":{"kind":"relief","city":"Minneapolis","name":"Northeast Library","address":"2200 Central Ave. NE","type":"Library","hours":"Mon/Tues/Fri/Sat 9am-5pm, Wed/Thu 12pm-8pm; closed Sun.","phone":"612-543-6775","website":"https://www.hclib.org/about/locations/northeast","notes":null,"free":true}},{"type":"Feature","geometry":{"type":"Point","coordinates":[-93.4024740689912,45.120795930479]},"properties":{"kind":"relief","city":"Osseo","name":"Osseo Library","address":"415 Central Ave","type":"Library","hours":"Mon/Tues/Wed/Thu 7:30am-5pm, Fri 7:30am-11:30am, closed Sat/Sun.","phone":"612-543-5750","website":"https://www.hclib.org/about/locations/osseo","notes":null,"free":true}},{"type":"Feature","geometry":{"type":"Point","coordinates":[-93.309618621875,44.8439773275018]},"properties":{"kind":"relief","city":"Bloomington","name":"Penn Lake Library","address":"8800 Penn Ave S","type":"Library","hours":"Mon/Tues/Wed 12pm-8pm, Thu/Fri/Sat 9am-5pm, Sun 12pm-5pm.","phone":"612-543-5800","website":"https://www.hclib.org/about/locations/penn-lake","notes":null,"free":true}},{"type":"Feature","geometry":{"type":"Point","coordinates":[-93.2699879155521,44.999153071805]},"properties":{"kind":"relief","city":"Minneapolis","name":"Pierre Bottineau Library","address":"55 Broadway St. NE","type":"Library","hours":"Mon/Thu 12pm-8pm, Tue/Wed/Fri/Sat 9am-5pm; closed Sun.","phone":"612-543-6850","website":"https://www.hclib.org/about/locations/pierre-bottineau","notes":null,"free":true}},{"type":"Feature","geometry":{"type":"Point","coordinates":[-93.4810816865468,45.0226900595543]},"properties":{"kind":"relief","city":"Plymouth","name":"Plymouth Community Library","address":"15700 36th Ave N","type":"Library","hours":"Mon/Tues/Wed/Thu 9am-8pm, Fri/Sat 9am-5pm, Sun 12pm-5pm.","phone":"612-543-5825","website":"https://www.hclib.org/about/locations/plymouth","notes":null,"free":true}},{"type":"Feature","geometry":{"type":"Point","coordinates":[-93.4403268989473,44.9645592911764]},"properties":{"kind":"relief","city":"Minnetonka","name":"Ridgedale Library","address":"12601 Ridgedale Drive","type":"Library","hours":"Mon/Tues/Wed/Thu 9am-8pm, Fri/Sat 9am-5pm, Sun 12pm-5pm.","phone":"612-543-8800","website":"https://www.hclib.org/about/locations/ridgedale","notes":null,"free":true}},{"type":"Feature","geometry":{"type":"Point","coordinates":[-93.7329247726959,45.0895259564497]},"properties":{"kind":"relief","city":"Rockford","name":"Great River Regional Library - Rockford","address":"8220 Cedar St.","type":"Library","hours":"Mon/Wed 10am-6pm, Tues/Thu 2pm-7pm, Fri 2pm-6pm, Sat 10am-1pm; closed Sun","phone":"763-477-4216","website":"https://www.griver.org/locations-and-hours/great-river-regional-library-rockford","notes":null,"free":true}},{"type":"Feature","geometry":{"type":"Point","coordinates":[-93.3618959836454,45.0321733436208]},"properties":{"kind":"relief","city":"Crystal","name":"Rockford Road Library","address":"6401 42nd Avenue N","type":"Library","hours":"Mon/Fri/Sat 9am-5pm, Tues/Wed/Thu 12pm-8pm, Sun 12pm-5pm.","phone":"612-543-5875","website":"https://www.hclib.org/about/locations/rockford-road","notes":null,"free":true}},{"type":"Feature","geometry":{"type":"Point","coordinates":[-93.5482906487319,45.1917116512629]},"properties":{"kind":"relief","city":"Rogers","name":"Rogers Library","address":"21300 John Milless Drive","type":"Library","hours":"Mon/Thu 12pm-8pm, Tue/Wed/Fri/Sat 9am-5pm; closed Sun.","phone":"612-543-6050","website":"https://www.hclib.org/about/locations/rogers","notes":null,"free":true}},{"type":"Feature","geometry":{"type":"Point","coordinates":[-93.2325030959748,44.9296072955967]},"properties":{"kind":"relief","city":"Minneapolis","name":"Roosevelt Library","address":"4026 28th Ave. S.","type":"Library","hours":"Mon/Tues/Fri/Sat 9am-5pm, Wed/Thu 12pm-8pm, closed Sun.","phone":"612-543-6700","website":"https://www.hclib.org/about/locations/roosevelt","notes":null,"free":true}},{"type":"Feature","geometry":{"type":"Point","coordinates":[-93.1936307381878,44.9810022382816]},"properties":{"kind":"relief","city":"St. Paul","name":"Saint Anthony Park Library","address":"2245 Como Ave","type":"Library","hours":"Mon/Wed 12pm-8pm, Tues/Thu 10am-8pm, Fri/Sat 10am-5:30pm, closed Sun.","phone":"651-642-0411","website":"https://sppl.org/locations/SA/","notes":null,"free":true}},{"type":"Feature","geometry":{"type":"Point","coordinates":[-93.2188521193124,45.0159952757343]},"properties":{"kind":"relief","city":"St. Anthony","name":"St. Anthony Library","address":"2941 Pentagon Drive NE","type":"Library","hours":"Mon/Tue 12pm-8pm, Wed/Thu/Fri/Sat 9am-5pm, closed Sun.","phone":"612-543-6075","website":"https://www.hclib.org/about/locations/st-anthony","notes":null,"free":true}},{"type":"Feature","geometry":{"type":"Point","coordinates":[-93.7434613570053,44.904122407032]},"properties":{"kind":"relief","city":"St. Bonifacius","name":"St. Bonifacius Library","address":"8624 Kennedy Memorial Drive","type":"Library","hours":"Tue/Wed 12pm-8pm, Thu 9am-5pm; closed Fri/Sat/Sun/Mon.","phone":"612-543-6100","website":"https://www.hclib.org/about/locations/st-bonifacius","notes":null,"free":true}},{"type":"Feature","geometry":{"type":"Point","coordinates":[-93.3691067821184,44.9436844496701]},"properties":{"kind":"relief","city":"St. Louis Park","name":"St. Louis Park Library","address":"3240 Library Lane","type":"Library","hours":"Tue/Wed/Thu 12pm-8pm, Mon/Fri/Sat 9am-5pm, Sun 12pm-5pm.","phone":"612-543-6125","website":"https://www.hclib.org/about/locations/st-louis-park","notes":null,"free":true}},{"type":"Feature","geometry":{"type":"Point","coordinates":[-93.6480601537911,45.2114493520925]},"properties":{"kind":"relief","city":"St. Michael","name":"Great River Regional Library - St. Michael","address":"11800 Town Center Drive NE","type":"Library","hours":"Mon/Tue/Wed/Thu 10am-7pm, Fri 10am-5pm, Sat 9am-2pm, closed Sun.","phone":"763-497-1998","website":"https://www.griver.org/locations-and-hours/great-river-regional-library-st-michael","notes":null,"free":true}},{"type":"Feature","geometry":{"type":"Point","coordinates":[-93.294670676397,44.9848345766726]},"properties":{"kind":"relief","city":"Minneapolis","name":"Sumner Library","address":"611 Van White Memorial Blvd.","type":"Library","hours":"Mon/Thu 12pm-8pm, Tue/Wed/Fri 9am-5pm, Sun 12pm-5pm; closed Sat.","phone":"612-543-6875","website":"https://www.hclib.org/about/locations/sumner","notes":null,"free":true}},{"type":"Feature","geometry":{"type":"Point","coordinates":[-93.2985957645838,44.9494619663561]},"properties":{"kind":"relief","city":"Minneapolis","name":"Walker Library","address":"2880 Hennepin Ave","type":"Library","hours":"Mon/Wed 12pm-8pm, Tue/Thu/Fri/Sat 9am-5pm; closed Sun.","phone":"612-543-8400","website":"https://www.hclib.org/about/locations/walker","notes":null,"free":true}},{"type":"Feature","geometry":{"type":"Point","coordinates":[-93.2886918364195,44.907356101157]},"properties":{"kind":"relief","city":"Minneapolis","name":"Washburn Library","address":"5244 Lyndale Ave. S.","type":"Library","hours":"Mon/Wed/Fri/Sat 9am-5pm, Tue/Thu 12pm-8pm, closed Sun.","phone":"612-543-8375","website":"https://www.hclib.org/about/locations/washburn","notes":null,"free":true}},{"type":"Feature","geometry":{"type":"Point","coordinates":[-93.512452197285,44.9710571483485]},"properties":{"kind":"relief","city":"Wayzata","name":"Wayzata Library","address":"620 Rice Street","type":"Library","hours":"Mon/Thu/Fri/Sat 9am-5pm, Tue/Wed 12pm-8pm; closed Sun.","phone":"612-543-6150","website":"https://www.hclib.org/about/locations/wayzata","notes":null,"free":true}},{"type":"Feature","geometry":{"type":"Point","coordinates":[-93.2988697572519,45.0356291822401]},"properties":{"kind":"relief","city":"Minneapolis","name":"Webber Park Library","address":"4440 Humboldt Ave. N.","type":"Library","hours":"Mon/Wed/Fri/Sat 9am-5pm, Tue/Thu 12pm-8pm; closed Sun.","phone":"612-543-6750","website":"https://www.hclib.org/about/locations/webber-park","notes":null,"free":true}},{"type":"Feature","geometry":{"type":"Point","coordinates":[-93.2377075838372,44.9809368632529]},"properties":{"kind":"relief","city":"Minneapolis","name":"Arvonne Fraser Library","address":"1222 4th St. SE","type":"Library","hours":"Mon/Wed/Fri/Sat 9am-5pm, Tue/Thu 12pm-8pm; closed Sun.","phone":"612-543-6725","website":"https://www.hclib.org/about/locations/arvonne-fraser","notes":null,"free":true}},{"type":"Feature","geometry":{"type":"Point","coordinates":[-93.4283140373375,44.8504340957414]},"properties":{"kind":"relief","city":"Eden Prairie","name":"Eden Prairie Library","address":"565 Prairie Center Drive","type":"Library","hours":"Mon/Tue/Wed/Thu 9am-8pm, Fri/Sat 9am-5pm, Sun 12pm-5pm.","phone":"612-543-6275","website":"https://www.hclib.org/about/locations/eden-prairie","notes":null,"free":true}},{"type":"Feature","geometry":{"type":"Point","coordinates":[-93.2705711273758,44.9374320629415]},"properties":{"kind":"relief","city":"Minneapolis","name":"Hosmer Library","address":"347 East 36th St","type":"Library","hours":"Mon/Tue/Wed 12pm-8pm, Thu/Fri/Sat 9am-5pm, Sun 12pm-5pm.","phone":"612-543-6900","website":"https://www.hclib.org/about/locations/hosmer","notes":null,"free":true}},{"type":"Feature","geometry":{"type":"Point","coordinates":[-93.2675759549284,44.8441454567665]},"properties":{"kind":"relief","city":"Bloomington","name":"Oxboro Library","address":"8801 Portland Ave S","type":"Library","hours":"Mon/Thu/Fri/Sat 9am-5pm, Tue/Wed 12pm-8pm; closed Sun.","phone":"612-543-5775","website":"https://www.hclib.org/about/locations/oxboro","notes":null,"free":true}},{"type":"Feature","geometry":{"type":"Point","coordinates":[-93.3474380104553,44.9672916263229]},"properties":{"kind":"relief","city":"St. Louis Park","name":"Marcus Theatres","address":"1625 West End Blvd","type":"Movie Theater","hours":"Call or check website for show times","phone":"952-646-5530","website":"https://www.marcustheatres.com/theatre-locations/west-end-cinema","notes":null,"free":false}},{"type":"Feature","geometry":{"type":"Point","coordinates":[-93.4810044695088,45.0194010249187]},"properties":{"kind":"relief","city":"Plymouth","name":"Plymouth Cinema 15","address":"3400 Vicksburg Ln N","type":"Movie Theater","hours":"Call or check website for show times","phone":"763-551-0000","website":"https://manntheatres.com/theatre/87/Plymouth-Grand-15","notes":null,"free":false}},{"type":"Feature","geometry":{"type":"Point","coordinates":[-93.2131406986992,44.9340843503892]},"properties":{"kind":"relief","city":"Minneapolis","name":"Riverview Theater","address":"3800 42nd Ave S","type":"Movie Theater","hours":"Call or check website for show times","phone":"612-729-7369","website":"http://www.riverviewtheater.com/","notes":null,"free":false}},{"type":"Feature","geometry":{"type":"Point","coordinates":[-93.3935180674942,45.1617264356297]},"properties":{"kind":"relief","city":"Champlin","name":"Champlin Cinema 14","address":"11500 Theatre Dr N","type":"Movie Theater","hours":"Call or check website for show times","phone":"763-712-3241","website":"https://manntheatres.com/theatre/?tid=81","notes":null,"free":false}},{"type":"Feature","geometry":{"type":"Point","coordinates":[-93.3260655792809,44.8797744247673]},"properties":{"kind":"relief","city":"Edina","name":"AMC Southdale 16","address":"400 Southdale Ctr","type":"Movie Theater","hours":"Call or check website for show times","phone":"952-920-9595","website":"https://www.amctheatres.com/movie-theatres/minneapolis-st-paul/amc-southdale-16","notes":null,"free":false}},{"type":"Feature","geometry":{"type":"Point","coordinates":[-93.4055230598248,44.9792815793406]},"properties":{"kind":"relief","city":"Plymouth","name":"Emagine Willow Creek","address":"9900 Shelard Pkwy","type":"Movie Theater","hours":"Call or check website for show times","phone":"763-591-5921","website":"http://www.emagine-entertainment.com/locations/emagine-willow-creek/","notes":null,"free":false}},{"type":"Feature","geometry":{"type":"Point","coordinates":[-93.4251274591812,44.8549606764283]},"properties":{"kind":"relief","city":"Eden Prairie","name":"AMC Eden Prairie Mall 18","address":"8251 Flying Cloud Dr","type":"Movie Theater","hours":"Call or check website for show times","phone":"952-656-0010","website":"https://www.amctheatres.com/movie-theatres/minneapolis-st-paul/amc-eden-prairie-mall-18","notes":null,"free":false}},{"type":"Feature","geometry":{"type":"Point","coordinates":[-93.2967036728037,44.9493957863008]},"properties":{"kind":"relief","city":"Minneapolis","name":"Lagoon Landmark Theatre","address":"1320 Lagoon Ave","type":"Movie Theater","hours":"Call or check website for show times","phone":"612-823-3020","website":"https://www.landmarktheatres.com/our-locations/x01qw-landmark-lagoon-cinema-minneapolis","notes":null,"free":false}},{"type":"Feature","geometry":{"type":"Point","coordinates":[-93.3297079918393,44.9122139659784]},"properties":{"kind":"relief","city":"Edina","name":"Edina Cinema","address":"3911 W 50th St","type":"Movie Theater","hours":"Call or check website for show times","phone":"952-926-1307","website":"https://manntheatres.com/theatre/89/Edina-4","notes":null,"free":false}},{"type":"Feature","geometry":{"type":"Point","coordinates":[-93.2553502637312,44.98467827526]},"properties":{"kind":"relief","city":"Minneapolis","name":"The Main","address":"115 Main Street SE","type":"Movie Theater","hours":"Call or check website for show times","phone":"612-395-4444","website":"https://mspfilm.org/","notes":null,"free":false}},{"type":"Feature","geometry":{"type":"Point","coordinates":[-93.5483946895368,45.2024098968635]},"properties":{"kind":"relief","city":"Rogers","name":"Emagine Rogers","address":"13692 Rogers Dr","type":"Movie Theater","hours":"Call or check website for show times","phone":"763-428-3846","website":"http://www.emagine-entertainment.com/locations/emagine-rogers/","notes":null,"free":false}},{"type":"Feature","geometry":{"type":"Point","coordinates":[-93.2780406650296,45.1529028663138]},"properties":{"kind":"relief","city":"Coon Rapids","name":"AMC Showplace Coon Rapids 16","address":"10051 Woodcrest Dr NW","type":"Movie Theater","hours":"Call or check website for show times","phone":"763-757-6233","website":"https://www.amctheatres.com/movie-theatres/minneapolis-st-paul/amc-coon-rapids-16","notes":null,"free":false}},{"type":"Feature","geometry":{"type":"Point","coordinates":[-93.1685353041,45.0129842626189]},"properties":{"kind":"relief","city":"Roseville","name":"AMC Rosedale 14","address":"1595 Highway 36W","type":"Movie Theater","hours":"Call or check website for show times","phone":"651-604-9344","website":"https://www.amctheatres.com/movie-theatres/minneapolis-st-paul/amc-rosedale-14","notes":null,"free":false}},{"type":"Feature","geometry":{"type":"Point","coordinates":[-93.1779159204385,44.9398585267193]},"properties":{"kind":"relief","city":"St. Paul","name":"Grandview 1 & 2","address":"1830 Grand Ave","type":"Movie Theater","hours":"Call or check website for show times","phone":"651-698-3344","website":"https://manntheatres.com/theatres/","notes":null,"free":false}},{"type":"Feature","geometry":{"type":"Point","coordinates":[-93.1870882915952,44.9184391091364]},"properties":{"kind":"relief","city":"St. Paul","name":"Highland 1 & 2","address":"760 Cleveland Ave S","type":"Movie Theater","hours":"Call or check website for show times","phone":"651-698-3085","website":"https://manntheatres.com/theatres/","notes":null,"free":false}},{"type":"Feature","geometry":{"type":"Point","coordinates":[-93.2471063280654,45.0397914533802]},"properties":{"kind":"relief","city":"Columbia Heights","name":"Heights Theatre","address":"3951 Central Ave NE","type":"Movie Theater","hours":"Call or check website for show times","phone":"763-789-4992","website":"http://www.heightstheater.com/","notes":null,"free":false}},{"type":"Feature","geometry":{"type":"Point","coordinates":[-93.3815653912294,45.0086901992819]},"properties":{"kind":"relief","city":"New Hope","name":"New Hope Cinema Grill","address":"2749 Winnetka Ave N","type":"Movie Theater","hours":"Call or check website for show times","phone":"763-417-0017","website":"https://www.cinemagrill.com/","notes":null,"free":false}},{"type":"Feature","geometry":{"type":"Point","coordinates":[-93.2440712257044,44.8554293601996]},"properties":{"kind":"relief","city":"Bloomington","name":"Mall of America","address":"60 East Broadway","type":"Shopping Mall","hours":"Mon-Sat 10am-9pm, Sun 11am-7pm","phone":"952-883-8800","website":"https://www.mallofamerica.com/","notes":null,"free":true}},{"type":"Feature","geometry":{"type":"Point","coordinates":[-93.4250311002075,44.8543781130243]},"properties":{"kind":"relief","city":"Eden Prairie","name":"Eden Prairie Center","address":"8251 Flying Cloud Dr","type":"Shopping Mall","hours":"Mon-Sat 10am-8pm, Sun 11am-6pm","phone":"952-941-7650","website":"https://www.edenprairiecenter.com/","notes":null,"free":true}},{"type":"Feature","geometry":{"type":"Point","coordinates":[-93.2606503790516,45.1276199722654]},"properties":{"kind":"relief","city":"Blaine","name":"Northtown Mall","address":"398 Northtown Dr NE","type":"Shopping Mall","hours":"Mon-Sat 11am-8pm, Sun 11am-6pm","phone":"763-786-9704","website":"https://northtown-mall.com/","notes":null,"free":true}},{"type":"Feature","geometry":{"type":"Point","coordinates":[-93.4372910905089,44.967915646325]},"properties":{"kind":"relief","city":"Minnetonka","name":"Ridgedale Center","address":"12401 Wayzata Blvd","type":"Shopping Mall","hours":"Mon-Sat 10am-8pm, Sun 11am-6pm","phone":"952-252-2801","website":"https://www.ridgedalecenter.com/en.html","notes":null,"free":true}},{"type":"Feature","geometry":{"type":"Point","coordinates":[-93.1715821140094,45.0124642576064]},"properties":{"kind":"relief","city":"Roseville","name":"Rosedale Shopping Center","address":"1595 Highway 36 W","type":"Shopping Mall","hours":"Mon-Sat 10am-8pm, Sun 11am-6pm","phone":"651-633-0872","website":"https://rosedalecenter.com/","notes":null,"free":true}},{"type":"Feature","geometry":{"type":"Point","coordinates":[-93.3262443725139,44.8813044045235]},"properties":{"kind":"relief","city":"Edina","name":"Southdale Shopping Center","address":"10 Southdale Ctr","type":"Shopping Mall","hours":"Mon-Sat 10am-8pm, Sun 11am-6pm","phone":"952-925-7885","website":"https://www.simon.com/mall/southdale-center","notes":null,"free":true}},{"type":"Feature","geometry":{"type":"Point","coordinates":[-93.3274894504452,44.877178695186]},"properties":{"kind":"relief","city":"Edina","name":"Galleria","address":"69th Street & France Ave","type":"Shopping Mall","hours":"Mon-Sat 10am-7pm, Sun 11am-6pm","phone":"952-925-4321","website":"https://www.galleriaedina.com/","notes":null,"free":true}},{"type":"Feature","geometry":{"type":"Point","coordinates":[-93.2667479777562,45.008622103255]},"properties":{"kind":"relief","city":"Minneapolis","name":"Bottineau Recreation Center","address":"2000 2nd St. NE","type":"Rec Com Cntr","hours":"Mon-Thurs 12pm-8pm, Fri & Sat 12pm-6pm, closed Sun","phone":"612-370-4958","website":"https://www.minneapolisparks.org/parks__destinations/recreation_centers/bottineau_recreation_center/","notes":"Air conditioned facility; may be open additional hours for specific programs.","free":true}},{"type":"Feature","geometry":{"type":"Point","coordinates":[-93.2495031436321,44.9598420110714]},"properties":{"kind":"relief","city":"Minneapolis","name":"East Phillips Park Cultural and Community Center","address":"2307 17th Ave. S.","type":"Rec Com Cntr","hours":"Mon-Thurs 12pm-8pm, Fri & Sat 12pm-6pm, Closed Sun.","phone":"612-370-4888","website":"https://www.minneapolisparks.org/parks__destinations/recreation_centers/east_phillips_park_cultural_and_community_center/","notes":"Air conditioned facility; may be open additional hours for specific programs.","free":true}},{"type":"Feature","geometry":{"type":"Point","coordinates":[-93.2597776816365,44.9693537304162]},"properties":{"kind":"relief","city":"Minneapolis","name":"Elliot Recreation Center","address":"1000 14th St. E","type":"Rec Com Cntr","hours":"Mon-Thurs 12pm-8pm, Fri 12pm-6pm, Sat & Sun closed","phone":"612-370-4772","website":"https://www.minneapolisparks.org/parks__destinations/recreation_centers/elliot_recreation_center/","notes":"Air conditioned facility; may be open additional hours for specific programs.","free":true}},{"type":"Feature","geometry":{"type":"Point","coordinates":[-93.2872895851582,45.0090869852036]},"properties":{"kind":"relief","city":"Minneapolis","name":"Farview Recreation Center","address":"621 29th Ave. N","type":"Rec Com Cntr","hours":"Mon-Thurs 12pm-8pm, Fri 12pm-6pm, Sat & Sun closed","phone":"612-370-4922","website":"https://www.minneapolisparks.org/parks__destinations/recreation_centers/farview_recreation_center/","notes":"Air conditioned facility; may be open additional hours for specific programs.","free":true}},{"type":"Feature","geometry":{"type":"Point","coordinates":[-93.3002954012215,45.0235850992636]},"properties":{"kind":"relief","city":"Minneapolis","name":"Folwell Recreation Center","address":"1615 Dowling Ave N","type":"Rec Com Cntr","hours":"Mon-Thurs 12pm-8pm, Fri 12pm-6pm, Sat & Sun closed","phone":"612-370-4917","website":"https://www.minneapolisparks.org/parks__destinations/recreation_centers/folwell_recreation_center/","notes":"Air conditioned facility; may be open additional hours for specific programs.","free":true}},{"type":"Feature","geometry":{"type":"Point","coordinates":[-93.3077306634639,44.9622963736211]},"properties":{"kind":"relief","city":"Minneapolis","name":"Kenwood Community Center","address":"2101 Franklin Ave. W","type":"Rec Com Cntr","hours":"Mon-Thurs 12pm-8pm, Fri 12pm-6pm,  Sat & Sun closed","phone":"612-370-4941","website":"https://www.minneapolisparks.org/parks__destinations/recreation_centers/kenwood_community_center/","notes":"Air conditioned facility; may be open additional hours for specific programs.","free":true}},{"type":"Feature","geometry":{"type":"Point","coordinates":[-93.2336910240045,44.9231565362678]},"properties":{"kind":"relief","city":"Minneapolis","name":"Lake Hiawatha Recreation Center","address":"2701 44th St. E","type":"Rec Com Cntr","hours":"Mon-Thurs 12pm-8pm, Fri 12pm-6pm, Sat & Sun closed","phone":"612-370-4930","website":"https://www.minneapolisparks.org/parks__destinations/recreation_centers/lake_hiawatha_recreation_center/","notes":"Air conditioned facility; may be open additional hours for specific programs.","free":true}},{"type":"Feature","geometry":{"type":"Point","coordinates":[-93.2198218166595,44.9401017069594]},"properties":{"kind":"relief","city":"Minneapolis","name":"Longfellow Recreation Center","address":"3435 36th Ave. S","type":"Rec Com Cntr","hours":"Mon-Thurs 12pm-8pm, Fri 12pm-6pm, Sat & Sun closed","phone":"612-370-4957","website":"https://www.minneapolisparks.org/parks__destinations/recreation_centers/longfellow_recreation_center/","notes":"Air conditioned facility; may be open additional hours for specific programs.","free":true}},{"type":"Feature","geometry":{"type":"Point","coordinates":[-93.2827798064616,44.9689576984713]},"properties":{"kind":"relief","city":"Minneapolis","name":"Loring Community Arts Center","address":"1382 Willow St.","type":"Rec Com Cntr","hours":"Mon-Thurs 12pm-8pm, Fri 12pm-6pm, Sat & Sun closed","phone":"612-370-4929","website":"https://www.minneapolisparks.org/parks__destinations/recreation_centers/loring_community_arts_center/","notes":"Air conditioned facility; may be open additional hours for specific programs.","free":true}},{"type":"Feature","geometry":{"type":"Point","coordinates":[-93.2998795115804,44.9118586260902]},"properties":{"kind":"relief","city":"Minneapolis","name":"Lynnhurst Recreation Center","address":"1345 Minnehaha Pkwy. W","type":"Rec Com Cntr","hours":"Mon-Thurs 12pm-8pm, Fri 12pm-6pm, Sat & Sun closed","phone":"612-370-4914","website":"https://www.minneapolisparks.org/parks__destinations/recreation_centers/lynnhurst_recreation_center/","notes":"Air conditioned facility; may be open additional hours for specific programs.","free":true}},{"type":"Feature","geometry":{"type":"Point","coordinates":[-93.2306893624533,44.960038670098]},"properties":{"kind":"relief","city":"Minneapolis","name":"Matthews Recreation Center","address":"2318 29th Avenue S.","type":"Rec Com Cntr","hours":"Mon-Thurs 12pm-8pm, Fri 12pm-6pm, Sat & Sun closed","phone":"612-370-4950","website":"https://www.minneapolisparks.org/parks__destinations/recreation_centers/matthews_recreation_center/","notes":"Air conditioned facility; may be open additional hours for specific programs.","free":true}},{"type":"Feature","geometry":{"type":"Point","coordinates":[-93.3013129717897,44.9973547633405]},"properties":{"kind":"relief","city":"Minneapolis","name":"North Commons Recreation Center","address":"1801 James Ave. N","type":"Rec Com Cntr","hours":"Mon-Thurs 12pm-8pm, Fri & Sat 12pm-6pm, Sun closed","phone":"612-370-4921","website":"https://www.minneapolisparks.org/parks__destinations/recreation_centers/north_commons_recreation_center/","notes":"Air conditioned facility; may be open additional hours for specific programs.","free":true}},{"type":"Feature","geometry":{"type":"Point","coordinates":[-93.257146057016,44.9596256900789]},"properties":{"kind":"relief","city":"Minneapolis","name":"Phillips Community Center","address":"2323 11th Ave. S","type":"Rec Com Cntr","hours":"Mon-Thurs 12pm-8pm, Fri 12pm-6pm, Sat & Sun closed","phone":"612-370-4946","website":"https://www.minneapolisparks.org/parks__destinations/recreation_centers/phillips_community_center/","notes":"Air conditioned facility with indoor swimming pool; may be open additional hours for specific programs.","free":true}},{"type":"Feature","geometry":{"type":"Point","coordinates":[-93.2545282523331,44.9412917573953]},"properties":{"kind":"relief","city":"Minneapolis","name":"Powderhorn Recreation Center","address":"3400 15th Ave S","type":"Rec Com Cntr","hours":"Mon-Thurs 12pm-8pm, Fri & Sat 12pm-6pm, Sun closed","phone":"612-370-4960","website":"https://www.minneapolisparks.org/parks__destinations/recreation_centers/powderhorn_recreation_center/","notes":"Air conditioned facility; may be open additional hours for specific programs.","free":true}},{"type":"Feature","geometry":{"type":"Point","coordinates":[-93.2932894626585,45.0355470189087]},"properties":{"kind":"relief","city":"Minneapolis","name":"Webber Community Center","address":"4400 Dupont Ave. N","type":"Rec Com Cntr","hours":"Mon-Thurs 12pm-8pm, Fri 12pm-6pm, Sat & Sun closed","phone":"612-370-4916","website":"https://www.minneapolisparks.org/parks__destinations/recreation_centers/webber_community_center/","notes":"Air conditioned facility; may be open additional hours for specific programs.","free":true}},{"type":"Feature","geometry":{"type":"Point","coordinates":[-93.2800923141398,44.8969316418605]},"properties":{"kind":"relief","city":"Minneapolis","name":"Windom South Community Center","address":"5843 Wentworth Ave.","type":"Rec Com Cntr","hours":"Mon-Thurs 12pm-8pm, Fri 12pm-6pm, Sat & Sun closed","phone":"612-370-4980","website":"https://www.minneapolisparks.org/parks__destinations/recreation_centers/windom_south_recreation_center/","notes":"Air conditioned facility; may be open additional hours for specific programs.","free":true}},{"type":"Feature","geometry":{"type":"Point","coordinates":[-93.443137878239,45.1032880826468]},"properties":{"kind":"relief","city":"Maple Grove","name":"Grove Cove Aquatic Center","address":"12951 Weaver Lake Rd N","type":"Swimming Pool","hours":"Pool is within the Maple Grove Community Center. Hours vary for different amenities; check website for details.","phone":"763-494-6500","website":"https://www.maplegrovemn.gov/community-center","notes":"Indoor playground, swimming pools, gym, and concessions.","free":false}},{"type":"Feature","geometry":{"type":"Point","coordinates":[-93.322113550227,44.8629571917124]},"properties":{"kind":"relief","city":"Edina","name":"Edinborough Park","address":"7700 York Ave S","type":"Rec Com Cntr","hours":"Call or visit website for hours.","phone":"952-833-9540","website":"https://www.edinamn.gov/600/Pool-Track","notes":"Swimming pool, track, indoor playground all open to members or daily passes can be purchased for use by non-members.","free":false}},{"type":"Feature","geometry":{"type":"Point","coordinates":[-93.3422042259967,44.9373001344417]},"properties":{"kind":"relief","city":"St Louis Park","name":"The Rec Center / Wolfe Park","address":"3700 Monterey Dr","type":"Rec Com Cntr","hours":"Mon-Thu 8am-8pm, Fri 8am-9pm, Sat 9am-6pm, Sun 12-6pm.","phone":"952-924-2540","website":"https://www.stlouispark.org/our-city/rent-a-facility/the-rec-center","notes":"Air conditioned facility; may be open additional hours for specific programs.","free":true}},{"type":"Feature","geometry":{"type":"Point","coordinates":[-93.3588445309047,45.0422852311771]},"properties":{"kind":"relief","city":"Crystal","name":"Crystal Community Center","address":"4800 Douglas Drive","type":"Rec Com Cntr","hours":"Mon-Fri 8:00am-4:30pm; some select evening and weekend hours, check website or call.","phone":"763-531-0052","website":"https://parksandrec.crystalmn.gov/ccc","notes":"Air conditioned facility; may be open additional hours for specific programs.","free":true}},{"type":"Feature","geometry":{"type":"Point","coordinates":[-93.3096554911879,45.0688495686673]},"properties":{"kind":"relief","city":"Brooklyn Center","name":"Brooklyn Center Community Center","address":"6301 Shingle Creek Pkwy","type":"Rec Com Cntr","hours":"Mon-Fri 8am-9pm, Sat 8am-8pm, Sun 1pm-8pm.","phone":"763-569-3400","website":"https://www.ci.brooklyn-center.mn.us/government/departments/recreation/community-center","notes":"Amenities include indoor pool & waterslide; call or check website for pool schedule.","free":true}},{"type":"Feature","geometry":{"type":"Point","coordinates":[-93.3515913615874,45.1107324559367]},"properties":{"kind":"relief","city":"Brooklyn Park","name":"Brooklyn Park Community Activity Center","address":"5600 85th Ave N\r\n5600 85th Ave N","type":"Rec Com Cntr","hours":"Daily 8am-10pm.","phone":"763-493-8333","website":"https://www.brooklynpark.org/our-facilities/cac-3/","notes":"Free walking track but some amenities have a fee; call facility with any questions.","free":true}},{"type":"Feature","geometry":{"type":"Point","coordinates":[-93.4892631246475,44.8712221365065]},"properties":{"kind":"relief","city":"Eden Prairie","name":"Eden Prairie Community Center","address":"16700 Valley View Road\r\n16700 Valley View Rd","type":"Rec Com Cntr","hours":"Facility open daily 5:30am-10pm.","phone":"952-949-8470","website":"https://www.edenprairie.org/community/community-center","notes":"Amenities include indoor pool, indoor playground,  gym, and concessions; call facility for details.","free":true}},{"type":"Feature","geometry":{"type":"Point","coordinates":[-93.4660190192884,44.9400202049306]},"properties":{"kind":"relief","city":"Minnetonka","name":"Minnetonka Community Center","address":"14600 Minnetonka Boulevard\r\n14600 Minnetonka Blvd","type":"Rec Com Cntr","hours":"Sun-Thu 8am-10pm, Fri-Sat 8am-12am (midnight).","phone":"952-939-8390","website":"https://www.minnetonkamn.gov/our-city/recreation-facilities-and-amenities/minnetonka-community-center","notes":"The facility contains several gathering spaces, conference and craft room areas, and restrooms. Some areas for reserved groups only.","free":true}},{"type":"Feature","geometry":{"type":"Point","coordinates":[-93.4171305605524,44.9256011753829]},"properties":{"kind":"relief","city":"Hopkins","name":"Hopkins Activity Center","address":"33 14th Ave N","type":"Rec Com Cntr","hours":"Senior programming Mon-Thur 8:30am-4pm","phone":"952-939-1333","website":"https://www.hopkinsmn.com/584/Hopkins-Activity-Center","notes":"Facility geared towards \"mature adults\"; reservations required at this time due to COVID19 response.","free":false}},{"type":"Feature","geometry":{"type":"Point","coordinates":[-93.3651055483309,44.9490628324035]},"properties":{"kind":"relief","city":"St Louis Park","name":"Lenox Community Center","address":"6715 Minnetonka Blvd","type":"Rec Com Cntr","hours":"Mon-Fri 8am-4pm Sat-Sun closed","phone":"952-928-6444","website":"https://slpcommunityed.com/","notes":null,"free":true}},{"type":"Feature","geometry":{"type":"Point","coordinates":[-93.4688034597643,45.0216269603949]},"properties":{"kind":"relief","city":"Plymouth","name":"Plymouth Community Center","address":"14800 34th Ave. N.","type":"Rec Com Cntr","hours":"Mon-Fri 7am-10pm, Sat-Sun 8am-8pm.","phone":"763-509-5200","website":"https://www.plymouthmn.gov/departments/parks-recreation-/plymouth-creek-center","notes":"Amenities include indoor playground, fitness, and sensory room; hours for certain amenities may vary. Call facility or check website.","free":true}},{"type":"Feature","geometry":{"type":"Point","coordinates":[-93.3855389476234,44.9761274602473]},"properties":{"kind":"relief","city":"Golden Valley","name":"Brookview Community Center","address":"316 Brookview Parkway S","type":"Rec Com Cntr","hours":"Mon-Sat 8am-9pm, Sun 9am-5pm.","phone":"763-512-2345","website":"http://brookviewgoldenvalley.com/","notes":"Amenities include indoor playground and educational spaces. Amenity hours may vary; inquire with facility.","free":true}},{"type":"Feature","geometry":{"type":"Point","coordinates":[-93.2787395805698,44.8760187634519]},"properties":{"kind":"relief","city":"Richfield","name":"Richfield Community Center","address":"7000 Nicollet Avenue","type":"Rec Com Cntr","hours":"Mon-Fri 8:30am-5pm, Sat-Sun closed.","phone":"612-861-9385","website":"https://www.richfieldmn.gov/departments/parks_and_recreation/community_center/index.php","notes":"Hours may vary for certain programming; call facility or check website.","free":true}},{"type":"Feature","geometry":{"type":"Point","coordinates":[-93.5468996747053,45.2119340867188]},"properties":{"kind":"relief","city":"Rogers","name":"Rogers Activity Center","address":"21080 141st Ave N","type":"Rec Com Cntr","hours":"All days 9am-9pm","phone":"763-428-1033","website":"https://rogersmn.gov/activity-center","notes":"Free walking track; closing times may vary - call facility.","free":true}},{"type":"Feature","geometry":{"type":"Point","coordinates":[-93.3551445905718,45.0834881120201]},"properties":{"kind":"relief","city":"Brooklyn Park","name":"Zanewood Recreation Center","address":"7100 Zane Ave. N.","type":"Rec Com Cntr","hours":"Mon-Fri 2pm-9pm, Sat 9am-2:30pm, Sun 9am-1:30pm","phone":"763-315-8444","website":"https://www.brooklynpark.org/city-government/recreation-and-parks/zanewood-recreation-center/","notes":null,"free":true}},{"type":"Feature","geometry":{"type":"Point","coordinates":[-93.4122117305015,44.934208972296]},"properties":{"kind":"relief","city":"Hopkins","name":"Eisenhower Community Center","address":"1001 Highway 7","type":"Rec Com Cntr","hours":"Mon-Fri 8:15am-4pm, Sat-Sun closed","phone":"952-988-4000","website":"https://www.hopkinsschools.org/","notes":null,"free":true}},{"type":"Feature","geometry":{"type":"Point","coordinates":[-93.5889170011079,44.8992995759638]},"properties":{"kind":"relief","city":"Shorewood","name":"Southshore Senior Partners","address":"5735 County Club Road","type":"Rec Com Cntr","hours":"Mon-Fri 9am-3:30pm Sat-Sun closed","phone":"952-474-7635","website":"https://www.shorewoodcec.com/senior/index.php","notes":"Membership required for select activities.","free":true}},{"type":"Feature","geometry":{"type":"Point","coordinates":[-93.3496094903565,44.9784752757728]},"properties":{"kind":"relief","city":"Golden Valley","name":"Davis Community Center","address":"5430 Glenwood Ave","type":"Rec Com Cntr","hours":"Mon-Fri 4:52pm-12am, Sat 12am-4.52pm, Sun closed","phone":"763-512-2345","website":"https://www.goldenvalleymn.gov/recreation/davis/","notes":null,"free":true}},{"type":"Feature","geometry":{"type":"Point","coordinates":[-93.3464049355336,45.0227795904735]},"properties":{"kind":"relief","city":"Robbinsdale","name":"Robbinsdale Community Gym","address":"3730 Toledo Avenue North","type":"Rec Com Cntr","hours":"Mon-Fri 5:30pm-9:30pm, Sat 9am-8pm, Sun 12pm-8pm","phone":"763-442-1678","website":"http://www.robbinsdalemn.com/services/recreation-parks-facilities/community-gym-fitness-center","notes":"Facility is within the middle school buildingSome amenities require fee; no fee required to use facility as a cooling option.","free":true}},{"type":"Feature","geometry":{"type":"Point","coordinates":[-93.2504383566637,44.9707036313276]},"properties":{"kind":"relief","city":"Minneapolis","name":"Coyle Community Center","address":"420 15th Ave. S","type":"Rec Com Cntr","hours":"Hours vary; call facility or visit website for info.","phone":"612-338-5282","website":"https://www.minneapolisparks.org/parks__destinations/recreation_centers/coyle_community_center/","notes":"Air conditioned facility; may be open additional hours for specific programs.","free":true}},{"type":"Feature","geometry":{"type":"Point","coordinates":[-93.2848329880249,44.9157082002938]},"properties":{"kind":"relief","city":"Minneapolis","name":"Fuller Recreation Center","address":"4802 Grand Ave S","type":"Rec Com Cntr","hours":"**CLOSED FOR CONSTRUCTION THROUGH AUGUST 2026** Mon-Fri 3pm-8pm, Sat 12pm-5pm, Sun closed","phone":"612-370-4963","website":"https://www.minneapolisparks.org/parks__destinations/recreation_centers/fuller_recreation_center/","notes":"**CLOSED FOR CONSTRUCTION THROUGH AUGUST 2026**Air conditioned facility; may be open additional hours for specific programs.","free":true}},{"type":"Feature","geometry":{"type":"Point","coordinates":[-93.2192317712644,44.96825888451]},"properties":{"kind":"relief","city":"Minneapolis","name":"Luxton Recreation Center","address":"112 Williams Ave. SE","type":"Rec Com Cntr","hours":"Mon-Thurs 12pm-8pm, Fri 12pm-6pm, Sat & Sun closed","phone":"612-370-4925","website":"https://www.minneapolisparks.org/parks__destinations/recreation_centers/luxton_recreation_center/","notes":"Air conditioned facility; may be open additional hours for specific programs.","free":true}},{"type":"Feature","geometry":{"type":"Point","coordinates":[-93.2378629708351,45.0038474579354]},"properties":{"kind":"relief","city":"Minneapolis","name":"Northeast Recreation Center","address":"1530 Johnson St. NE","type":"Rec Com Cntr","hours":"Mon-Thurs 12pm-8pm, Fri 12pm-6pm, Sat & Sun closed","phone":"612-370-4920","website":"https://www.minneapolisparks.org/parks__destinations/recreation_centers/northeast_recreation_center/","notes":"Air conditioned facility; may be open additional hours for specific programs.","free":true}},{"type":"Feature","geometry":{"type":"Point","coordinates":[-93.2661083939527,44.9414400990752]},"properties":{"kind":"relief","city":"Minneapolis","name":"Painter Recreation Center","address":"620 W 34th St.","type":"Rec Com Cntr","hours":"Mon-Thurs 12pm-8pm, Fri 12pm-6pm, Sat & Sun closed","phone":"612-370-4911","website":"https://www.minneapolisparks.org/parks__destinations/recreation_centers/painter_recreation_center/","notes":"Air conditioned facility; may be open additional hours for specific programs.","free":true}},{"type":"Feature","geometry":{"type":"Point","coordinates":[-93.3244577980356,44.9158502227434]},"properties":{"kind":"relief","city":"Minneapolis","name":"Pershing Recreation Center","address":"3523 W 48th St.","type":"Rec Com Cntr","hours":"Mon-Thurs 12pm-8pm, Fri 12pm-6pm, Sat & Sun closed","phone":"612-370-4928","website":"https://www.minneapolisparks.org/parks__destinations/recreation_centers/pershing_recreation_center/","notes":"Air conditioned facility; may be open additional hours for specific programs.","free":true}},{"type":"Feature","geometry":{"type":"Point","coordinates":[-93.2354472015254,45.0126675729427]},"properties":{"kind":"relief","city":"Minneapolis","name":"Windom Northeast Recreation Center","address":"2251 NE Hayes St.","type":"Rec Com Cntr","hours":"Mon-Thurs 12pm-8pm, Fri 12pm-6pm, Sat & Sun closed","phone":"612-370-4905","website":"https://www.minneapolisparks.org/parks__destinations/recreation_centers/windom_northeast_recreation_center/","notes":"Air conditioned facility; may be open additional hours for specific programs.","free":true}},{"type":"Feature","geometry":{"type":"Point","coordinates":[-93.3324659411055,44.9655140385117]},"properties":{"kind":"relief","city":"St. Louis Park","name":"Sabes Jewish Community Center","address":"4330 Cedar Lake Rd","type":"Rec Com Cntr","hours":"Mon-Fri 6am-9pm, Sat-Sun 8am-6pm, check website for pool hrs","phone":"952-381-3407","website":"https://www.sabesjcc.org/sabes-center-minneapolis/","notes":"Includes indoor and outdoor pools for members, guests, and program participants.","free":false}},{"type":"Feature","geometry":{"type":"Point","coordinates":[-93.3428883097324,44.9480548736694]},"properties":{"kind":"relief","city":"St. Louis Park","name":"St. Louis Park City Hall","address":"5005 Minnetonka Blvd","type":"Govt Bldg","hours":"Mon-Fri 8:00am-4:30pm","phone":"952-924-2500","website":"https://www.stlouispark.org/our-city/facilites-buildings/city-hall","notes":null,"free":true}},{"type":"Feature","geometry":{"type":"Point","coordinates":[-93.3591812751525,44.9394820772864]},"properties":{"kind":"relief","city":"St. Louis Park","name":"Central Community Center","address":"6300 Walker St","type":"Rec Com Cntr","hours":"Mon-Fri 8am-4pm, Sat 7:30am-3pm, Sun closed","phone":"952-928-6777","website":"https://slpcommunityed.com/adults/aquatics/","notes":"Includes indoor pool; currently only open for pre-registered programs.","free":true}},{"type":"Feature","geometry":{"type":"Point","coordinates":[-93.6688388688933,44.9315926512879]},"properties":{"kind":"relief","city":"Mound","name":"Gillespie Center","address":"2590 Commerce Blvd.","type":"Rec Com Cntr","hours":"Mon-Fri 8am-4pm, Sat-Sun closed","phone":"952-472-6501","website":"https://www.gillespiecenter.org","notes":"Restrictions may apply; inquire with facility.","free":true}},{"type":"Feature","geometry":{"type":"Point","coordinates":[-93.7196636926417,45.087275183053]},"properties":{"kind":"relief","city":"Rockford","name":"Rockford Community Center","address":"7600 Rebecca Park Trail","type":"Rec Com Cntr","hours":"Mon-Fri 5am-9pm, Sat 8am-4pm, Sun 10am-9pm","phone":"763-477-5294","website":"https://www.rockford.k12.mn.us/domain/43","notes":"Call facility to verify hours.","free":true}},{"type":"Feature","geometry":{"type":"Point","coordinates":[-93.2797717966416,44.9782120672629]},"properties":{"kind":"relief","city":"Minneapolis","name":"Harbor Light Center","address":"1010 Currie Ave.","type":"Salvation Army","hours":"Mon-Sun 9am-5pm","phone":"612-767-3100","website":"https://centralusa.salvationarmy.org/northern/HarborLightCenter/","notes":"Call ahead prior to visiting or check in at front desk.","free":true}},{"type":"Feature","geometry":{"type":"Point","coordinates":[-93.3385942276104,45.1370738740626]},"properties":{"kind":"relief","city":"Brooklyn Park","name":"Brooklyn Park Salvation Army","address":"10011 Noble Parkway","type":"Salvation Army","hours":"Mon-Fri 8:30am-4pm, Sat closed, Sun 10am-12pm.","phone":"763-425-0517","website":"https://centralusa.salvationarmy.org/northern/brooklynpark","notes":"Call ahead prior to visiting or check in at front desk.","free":true}},{"type":"Feature","geometry":{"type":"Point","coordinates":[-93.246823706234,45.01799779641]},"properties":{"kind":"relief","city":"Minneapolis","name":"Salvation Army Central Worship & Service Center","address":"2727 Central Ave. NE","type":"Salvation Army","hours":"Mon/Tue/Thurs/Fri 8am-12pm & 1pm-8pm, Wed/Sat 8am-12pm & 1pm-4pm, Sun closed.","phone":"612-789-2858","website":"https://centralusa.salvationarmy.org/northern/CentralMinneapolis","notes":"Call ahead prior to visiting or check in at front desk.","free":true}},{"type":"Feature","geometry":{"type":"Point","coordinates":[-93.2506738137725,44.9486514786688]},"properties":{"kind":"relief","city":"Minneapolis","name":"South Minneapolis Salvation Army","address":"1604 E. Lake St.","type":"Salvation Army","hours":"Mon-Fri 9am-4pm, Sat closed, Sun 10:30am-1:30pm. Call organization for hrs","phone":"612-721-1513","website":"https://centralusa.salvationarmy.org/northern/SouthMinneapolis/","notes":"Call ahead prior to visiting or check in at front desk.","free":true}},{"type":"Feature","geometry":{"type":"Point","coordinates":[-93.2875648383707,44.9999069596514]},"properties":{"kind":"relief","city":"Minneapolis","name":"North Minneapolis Salvation Army","address":"2024 Lyndale Ave. N.","type":"Salvation Army","hours":"Mon-Fri 9am-4pm, Sat-Sun closed. Call individual center for hours.","phone":"612-522-4871","website":"https://centralusa.salvationarmy.org/northern/NorthMinneapolis/","notes":"Call ahead prior to visiting or check in at front desk.","free":true}},{"type":"Feature","geometry":{"type":"Point","coordinates":[-93.013149389547,45.0327076177284]},"properties":{"kind":"relief","city":"Maplewood","name":"Lakewood Salvation Army","address":"2080 Woodlynn Ave.","type":"Salvation Army","hours":"Mon-Fri 9am-4pm, Sat closed Sun 9.30am-12pm.","phone":"651-779-9177","website":"https://centralusa.salvationarmy.org/northern/maplewood/","notes":"Call ahead prior to visiting or check in at front desk.","free":true}},{"type":"Feature","geometry":{"type":"Point","coordinates":[-93.0739010608452,44.9718029227288]},"properties":{"kind":"relief","city":"St. Paul","name":"St Paul Payne Ave Salvation Army","address":"1019 Payne Ave.","type":"Salvation Army","hours":"Mon-Fri 9am-5pm, Sat-Sun closed.","phone":"651-776-8169","website":"https://centralusa.salvationarmy.org/northern/EastStPaul/","notes":"Call ahead prior to visiting or check in at front desk.","free":true}},{"type":"Feature","geometry":{"type":"Point","coordinates":[-93.1094697159553,44.9395764300383]},"properties":{"kind":"relief","city":"St. Paul","name":"St Paul West 7th Street Salvation Army","address":"401 W. 7th St.","type":"Salvation Army","hours":"Mon-Fri 7am-5:30pm, Sat-Sun closed.","phone":"651-224-4316","website":"https://centralusa.salvationarmy.org/northern/WestStPaul","notes":"Call ahead prior to visiting or check in at front desk.","free":true}},{"type":"Feature","geometry":{"type":"Point","coordinates":[-93.2571383112255,44.9596176984468]},"properties":{"kind":"relief","city":"Minneapolis","name":"Phillips Aquatic Center","address":"2323 11th Ave. S.","type":"Swimming Pool","hours":"Mon-Thu 12pm-8pm, Fri 12pm-6pm, Sat 10am-3pm, Closed Sun.","phone":"612-370-4859","website":"https://www.minneapolisparks.org/activities-events/water-activities/phillips_aquatics_center/","notes":"Indoor pools. Restrictions during certain times may apply.","free":true}},{"type":"Feature","geometry":{"type":"Point","coordinates":[-93.3223023974002,44.8629390048097]},"properties":{"kind":"relief","city":"Edina","name":"Edinborough Park","address":"7700 York Ave S","type":"Swimming Pool","hours":"Open daily but hours vary; check website or call facility.","phone":"952-833-9540","website":"https://www.edinamn.gov/600/Pool-Track","notes":"Indoor pool is geared for adult use and no lifeguards are on duty. Restrictions during certain times may apply.","free":false}},{"type":"Feature","geometry":{"type":"Point","coordinates":[-93.2792218415453,44.9419738196159]},"properties":{"kind":"relief","city":"Minneapolis","name":"Blaisdell YMCA","address":"3335 Blaisdell Ave S","type":"Rec Com Cntr","hours":"Mon-Fri 5am-9pm, Sat-Sun 7am-5pm, Check with facility for pool hrs","phone":"612-827-5401","website":"https://www.ymcamn.org/locations/blaisdell_ymca","notes":"Indoor lap pool. Restrictions during certain times may apply.","free":true}},{"type":"Feature","geometry":{"type":"Point","coordinates":[-93.31997835008,44.8698156340054]},"properties":{"kind":"relief","city":"Edina","name":"Southdale YMCA","address":"7355 York Ave S","type":"Rec Com Cntr","hours":"Mon-Fri 5am-9pm, Sat-Sun 7am-5pm","phone":"952-835-2567","website":"https://www.ymcamn.org/locations/southdale_ymca","notes":"Indoor lap and leisure pool with zero entry for accessibility.","free":true}},{"type":"Feature","geometry":{"type":"Point","coordinates":[-93.4349588458671,44.9648582908125]},"properties":{"kind":"relief","city":"Minnetonka","name":"Ridgedale YMCA","address":"12301 Ridgedale Dr","type":"Rec Com Cntr","hours":"Mon-Fri 5am-9pm, Sat-Sun 7am-5pm","phone":"952-544-7708","website":"https://www.ymcamn.org/locations/ridgedale_ymca","notes":"Indoor lap pool. Restrictions during certain times may apply.","free":true}},{"type":"Feature","geometry":{"type":"Point","coordinates":[-93.2715394674836,44.977237021575]},"properties":{"kind":"relief","city":"Minneapolis","name":"Dayton at Gaviidae YMCA","address":"651 Nicollet Mall Ste. 300","type":"Rec Com Cntr","hours":"Mon-Thur 5.30am-8pm, Fri 5.30am-7pm, Sat 7am-3pm Sun closed. Check facility for pool hrs","phone":"612-371-9622","website":"https://www.ymcamn.org/locations/dayton_y","notes":"Indoor lap pool. Restrictions during certain times may apply.","free":true}},{"type":"Feature","geometry":{"type":"Point","coordinates":[-93.2725496771021,45.1324503865904]},"properties":{"kind":"relief","city":"Coon Rapids","name":"Emma B. Howe YMCA - Coon Rapids","address":"8950 Springbrook Drive NW","type":"Rec Com Cntr","hours":"Mon-Fri 5am-9pm, Sat-Sun 7am-5pm, Check with facility for pool hrs","phone":"763-785-7882","website":"https://www.ymcamn.org/locations/emma_b_howe_ymca","notes":"Indoor lap and leisure pool with zero entry for accessibility, outdoor splash pad. Re","free":true}},{"type":"Feature","geometry":{"type":"Point","coordinates":[-93.4632325477442,44.9371933147098]},"properties":{"kind":"relief","city":"Minnetonka","name":"Williston Aquatic Center","address":"14509 Minnetonka Dr","type":"Swimming Pool","hours":"Open daily but hours vary for certain days & holidays; contact facility for details.","phone":"952-939-8370","website":"https://www.minnetonkamn.gov/our-city/williston-fitness-center","notes":"Indoor pool; certain restrictions may apply.","free":false}},{"type":"Feature","geometry":{"type":"Point","coordinates":[-93.3772106636571,45.0309229152661]},"properties":{"kind":"relief","city":"New Hope","name":"New Hope YMCA","address":"7601 42nd Ave","type":"Rec Com Cntr","hours":"Mon-Fri 5am-9pm, Sat-Sun 7am-5pm. Check website for pool schedule.","phone":"763-535-4800","website":"https://www.ymcamn.org/locations/new_hope_ymca","notes":"Outdoor spray deck and indoor pool.","free":true}},{"type":"Feature","geometry":{"type":"Point","coordinates":[-93.5201463632034,45.1440542293318]},"properties":{"kind":"relief","city":"Maple Grove","name":"Minneapolis Northwest KOA","address":"10410 Brockton Ln","type":"Swimming Pool","hours":"Memorial Weekend - Labor Day Weekend","phone":"763-420-2255","website":"https://koa.com/campgrounds/minneapolis-northwest/","notes":"Outdoor and indoor pool.","free":true}},{"type":"Feature","geometry":{"type":"Point","coordinates":[-93.3108517486055,45.0660715604791]},"properties":{"kind":"relief","city":"Brooklyn Center","name":"Brookdale Regional Center","address":"6125 Shingle Creek Pkwy.","type":"Govt Bldg","hours":"Mon-Sat 9am-5pm, Sun 12pm-5pm","phone":"612-543-5600","website":"https://www.hennepin.us/your-government/facilities/county-buildings","notes":null,"free":true}},{"type":"Feature","geometry":{"type":"Point","coordinates":[-93.2933014200787,44.9915667335054]},"properties":{"kind":"relief","city":"Minneapolis","name":"North Mpls Human Services Center","address":"1001 Plymouth Ave. N.","type":"Govt Bldg","hours":"Mon-Fri 8am-4:30pm, Sat-Sun closed.","phone":"612-348-8240","website":"https://www.hennepin.us/your-government/facilities/county-buildings","notes":null,"free":true}},{"type":"Feature","geometry":{"type":"Point","coordinates":[-93.262152886655,44.9745883808884]},"properties":{"kind":"relief","city":"Minneapolis","name":"HC Health Services Building","address":"525 Portland Ave. S.","type":"Govt Bldg","hours":"Mon-Fri 8am-4:30pm, Sat-Sun closed.","phone":"612-348-3000","website":"https://www.hennepin.us/your-government/facilities/county-buildings","notes":null,"free":true}},{"type":"Feature","geometry":{"type":"Point","coordinates":[-93.3417123394969,45.0839781410568]},"properties":{"kind":"relief","city":"Brooklyn Center","name":"Northwest Family Services Center","address":"7051 Brooklyn Blvd.","type":"Govt Bldg","hours":"Mon-Fri 8am-4:30pm, Sat-Sun closed.","phone":"612-348-3000","website":"https://www.hennepin.us/your-government/facilities/county-buildings","notes":null,"free":true}},{"type":"Feature","geometry":{"type":"Point","coordinates":[-93.290992626595,44.8293652187522]},"properties":{"kind":"relief","city":"Bloomington","name":"South Suburban Human Services Center","address":"9600 Aldrich Ave. S.","type":"Govt Bldg","hours":"Mon-Fri 8am-4:30pm, Sat-Sun closed.","phone":"612-348-3000","website":"https://www.hennepin.us/your-government/facilities/county-buildings","notes":null,"free":true}},{"type":"Feature","geometry":{"type":"Point","coordinates":[-93.3245168244422,44.8810439576079]},"properties":{"kind":"relief","city":"Edina","name":"Southdale Service Center","address":"1225 Southdale Center","type":"Govt Bldg","hours":"Mon-Fri 8am-4:30pm, Sat-Sun closed.","phone":"612-348-8240","website":"https://www.hennepin.us/your-government/facilities/county-buildings","notes":null,"free":true}},{"type":"Feature","geometry":{"type":"Point","coordinates":[-93.4405411438845,44.9646020075246]},"properties":{"kind":"relief","city":"Minnetonka","name":"Ridgedale Regional Center","address":"12601 Ridgedale Dr.","type":"Govt Bldg","hours":"Mon-Fri 8am-4:30pm, Sat-Sun closed.","phone":"612-348-8240","website":"https://www.hennepin.us/your-government/facilities/county-buildings","notes":null,"free":true}},{"type":"Feature","geometry":{"type":"Point","coordinates":[-93.2656954280685,44.9773853716332]},"properties":{"kind":"relief","city":"Minneapolis","name":"City Hall/HC Courthouse","address":"401 3rd Ave. S.","type":"Govt Bldg","hours":"Mon-Fri 8am-4:30pm, Sat-Sun closed.","phone":"612-348-2040","website":"https://www.mncourts.gov/Find-Courts/Hennepin.aspx#tab09ContactUs","notes":null,"free":true}},{"type":"Feature","geometry":{"type":"Point","coordinates":[-93.2662495126056,44.9763102224401]},"properties":{"kind":"relief","city":"Minneapolis","name":"Government Center","address":"300 South 6th St.","type":"Govt Bldg","hours":"Mon-Fri 8am-4:30pm","phone":"612-348-3000","website":"https://www.hennepin.us/your-government/facilities/county-buildings","notes":"Face coverings required in all Hennepin County buildings regardless of vaccination status.","free":true}},{"type":"Feature","geometry":{"type":"Point","coordinates":[-93.2866160977922,44.8829031634793]},"properties":{"kind":"relief","city":"Richfield","name":"Richfield Human Services Satellite","address":"6625 Lyndale Ave.","type":"Govt Bldg","hours":"Mon-Fri 8am-4:30pm, Sat-Sun closed.","phone":"612-348-3000","website":"https://www.hennepin.us/your-government/facilities/county-buildings","notes":null,"free":true}},{"type":"Feature","geometry":{"type":"Point","coordinates":[-93.4824304947757,45.1251845104176]},"properties":{"kind":"relief","city":"Maple Grove","name":"Maple Grove Service Center","address":"9325 Upland Lane N., Suite 300","type":"Govt Bldg","hours":"Mon-Fri 8am-4:30pm, Sat-Sun closed.","phone":"612-348-8240","website":"https://www.hennepin.us/your-government/facilities/county-buildings","notes":null,"free":true}},{"type":"Feature","geometry":{"type":"Point","coordinates":[-93.2868168630913,44.9985647372784]},"properties":{"kind":"relief","city":"Minneapolis","name":"North Minneapolis Human Services Satellite","address":"627 West Broadway Ave.","type":"Govt Bldg","hours":"Mon-Fri 8am-4:30pm, Sat-Sun closed.","phone":"612-348-3000","website":"https://www.hennepin.us/your-government/projects-initiatives/regional-human-service-offices","notes":null,"free":true}},{"type":"Feature","geometry":{"type":"Point","coordinates":[-93.2674991481337,45.0059099438629]},"properties":{"kind":"relief","city":"Minneapolis","name":"Eastside Neighborhood Human Services Satellite","address":"1700 2nd St. N.E.","type":"Govt Bldg","hours":"Mon-Fri 8am-4:30pm, Sat-Sun closed.","phone":"612-781-6011","website":"https://www.esns.org/","notes":null,"free":true}},{"type":"Feature","geometry":{"type":"Point","coordinates":[-93.2717228000777,44.9350551929236]},"properties":{"kind":"relief","city":"Minneapolis","name":"Sabathani Community Human Services Satellite","address":"310 East 38th St.","type":"Govt Bldg","hours":null,"phone":"612-821-2300","website":"http://sabathani.org/","notes":null,"free":true}},{"type":"Feature","geometry":{"type":"Point","coordinates":[-93.2855237177753,44.9790081218079]},"properties":{"kind":"relief","city":"Minneapolis","name":"Catholic Charities Higher Ground Shelter","address":"165 Glenwood Ave","type":"Misc Site","hours":"Mon-Sun 12am-10am and 4pm-12am","phone":"612-204-8200","website":"https://www.cctwincities.org/locations/higher-ground-shelter/","notes":"Contact the center to verify hours","free":true}},{"type":"Feature","geometry":{"type":"Point","coordinates":[-93.2628887311109,44.9664444103705]},"properties":{"kind":"relief","city":"Minneapolis","name":"Catholic Charities Opportunity Center","address":"740 E 17th St","type":"Misc Site","hours":"Mon-Sat 7am-3pm, Sun closed","phone":"612-204-8300","website":"https://www.cctwincities.org/locations/opportunity-center/","notes":"Contact the center to verify hours","free":true}},{"type":"Feature","geometry":{"type":"Point","coordinates":[-93.2622758858411,44.9469496460896]},"properties":{"kind":"relief","city":"Minneapolis","name":"Mount Olive Lutheran Church","address":"3045 Chicago Ave S","type":"Misc Site","hours":"Mon-Fri 8am-3pm","phone":"612-827-5919","website":"https://www.mountolivechurch.org/","notes":"Contact the center to verify hours","free":true}},{"type":"Feature","geometry":{"type":"Point","coordinates":[-93.3868894941426,44.9671125681565]},"properties":{"kind":"relief","city":"St. Louis Park","name":"Westwood Hills Nature Center","address":"8300 W. Franklin Ave.","type":"Rec Com Cntr","hours":"Mon-Fri 8am-4:30pm, Sat-Sun 10am-5pm","phone":"952-924-2544","website":"https://www.stlouispark.org/government/departments-divisions/parks-rec/westwood-hills-nature-center","notes":"Contact the center to verify hours","free":true}},{"type":"Feature","geometry":{"type":"Point","coordinates":[-93.4627533430749,44.8560211213094]},"properties":{"kind":"relief","city":"Eden Prairie","name":"Eden Prairie City Center","address":"8080 Mitchell Rd.","type":"Misc Site","hours":"Mon-Fri 8am-4:30pm","phone":"952-949-8300","website":"https://www.edenprairie.org/Home/Components/FacilityDirectory/FacilityDirectory/10/1322","notes":null,"free":true}},{"type":"Feature","geometry":{"type":"Point","coordinates":[-93.3017627053543,44.9120044845059]},"properties":{"kind":"relief","city":"Minneapolis","name":"Mount Olivet Lutheran Church","address":"5025 Knox Avenue South","type":"Misc Site","hours":"Sun-Fri 7am-9.30pm, Sat 7am-3.30pm","phone":"612-926-7651","website":"https://mtolivet.org/","notes":null,"free":true}},{"type":"Feature","geometry":{"type":"Point","coordinates":[-93.3027072560877,44.9992665367973]},"properties":{"kind":"relief","city":"Minneapolis","name":"Harold Mezile North Community YMCA","address":"1711 W Broadway","type":"Swimming Pool","hours":"See website for hours","phone":"612-588-9484","website":"https://www.ymcanorth.org/locations/north_community_ymca","notes":"Check website for open swim hours","free":true}},{"type":"Feature","geometry":{"type":"Point","coordinates":[-93.2903449270017,44.9461526734277]},"properties":{"kind":"relief","city":"Minneapolis","name":"Bryant Square Recreation Center","address":"3101 Bryant Ave S.","type":"Rec Com Cntr","hours":"Mon-Thurs 12-8pm, Fri 12pm-6pm, Sat-Sun closed.","phone":"612-370-4907","website":"https://www.minneapolisparks.org/parks-destinations/recreation_centers_program_facilities/bryant_square_recreation_center/","notes":"Air conditioned facility; may be open additional hours for specific programs.","free":true}},{"type":"Feature","geometry":{"type":"Point","coordinates":[-93.2914352219497,44.9321569535129]},"properties":{"kind":"relief","city":"Minneapolis","name":"Lyndale Farmstead Recreation Center","address":"3900 Bryant Ave. S","type":"Rec Com Cntr","hours":"Mon-Thurs 12pm-8pm, Fri 12pm-6pm, Sat & Sun closed","phone":"612-370-4948","website":"https://www.minneapolisparks.org/parks-destinations/recreation_centers_program_facilities/lyndale_farmstead_recreation_center/","notes":"Air conditioned facility; may be open additional hours for specific programs.","free":true}},{"type":"Feature","geometry":{"type":"Point","coordinates":[-93.4275760937806,45.1448048313008]},"properties":{"kind":"relief","city":"Maple Grove","name":"Elm Creek Swim Pond","address":"12420 James Deane Pkwy.","type":"Swimming Pool","hours":"Open daily 9am-8pm.","phone":"763-694-7894","website":"https://www.threeriversparks.org/location/elm-creek-swimming-pond","notes":"Filtered, chlorinated swim pond with sand beach; check site or call for lifeguard status. Amenities include restrooms, changing shelter, and concessions.","free":false}},{"type":"Feature","geometry":{"type":"Point","coordinates":[-93.2509043615067,44.8609084399802]},"properties":{"kind":"relief","city":"Bloomington","name":"Great Wolf Lodge","address":"1700 American Blvd. E","type":"Swimming Pool","hours":"Open daily 10am-8pm","phone":"952-851-9653","website":"https://www.greatwolf.com/minnesota/daypass","notes":"Limited numbers of day passes available; call facility to reserve or visit website. Additional phone 1-800-905-9653","free":false}},{"type":"Feature","geometry":{"type":"Point","coordinates":[-93.2743907559204,44.9586086531809]},"properties":{"kind":"relief","city":"Minneapolis","name":"Minneapolis Institute of Art","address":"2400 3rd Ave. S","type":"Misc Site","hours":"Fri-Sun and Tue-Wed 10am-5pm, Thur 10am-9pm, Mon closed","phone":"888-642-2787","website":"https://new.artsmia.org/visit","notes":"Museum admission is free but special events and exhibits may require tickets (fee) and reservations; call or check online to inquire.","free":true}},{"type":"Feature","geometry":{"type":"Point","coordinates":[-93.2521592447163,45.1962777705851]},"properties":{"kind":"relief","city":"Blaine","name":"Roosevelt Community Pool","address":"650 125th Ave. NE","type":"Swimming Pool","hours":"Hours vary; call facility or check website.","phone":"763-506-5980","website":"https://www.ahschools.us/Page/22155","notes":"Capacity limits for open swim; call facility or reserve space online.","free":false}},{"type":"Feature","geometry":{"type":"Point","coordinates":[-93.2574165517668,44.9786904770716]},"properties":{"kind":"relief","city":"Minneapolis","name":"Mill City Museum","address":"704 S 2nd St.","type":"Misc Site","hours":"Thu-Fri 10am-4pm, Sat-Sun 10am-5pm, Mon-Wed closed.","phone":"612-341-7555","website":"https://www.mnhs.org/millcity","notes":"Special admission rates available; call facility or check online.","free":true}},{"type":"Feature","geometry":{"type":"Point","coordinates":[-93.0991194105687,44.9425302979971]},"properties":{"kind":"relief","city":"Saint Paul","name":"Science Museum of Minnesota","address":"120 Kellogg Blvd. W","type":"Misc Site","hours":"Sun-Thur 10am-5pm, Fri-Sat 10am-8pm","phone":"651-221-9444","website":"https://new.smm.org/visit","notes":"Special admission rates available; call facility or check online.","free":true}},{"type":"Feature","geometry":{"type":"Point","coordinates":[-93.1024349561888,44.9551436726457]},"properties":{"kind":"relief","city":"Saint Paul","name":"Minnesota State Capitol","address":"75 Rev. Dr. Martin Luther King Jr. Blvd.","type":"Govt Bldg","hours":"Mon-Fri 8am-5pm, Sat 10am-3pm, Sun closed.","phone":"651-296-2881","website":"https://www.mnhs.org/capitol/visit","notes":"Tours leave at the top of the hour; self-guided tours available during regular business hours.","free":true}},{"type":"Feature","geometry":{"type":"Point","coordinates":[-93.1323311170537,45.0809172264235]},"properties":{"kind":"relief","city":"Shoreview","name":"Shoreview Indoor Waterpark","address":"4580 Victoria St N","type":"Swimming Pool","hours":"Open daily but hours vary for certain amenities; contact facility for details.","phone":"651-490-4750","website":"https://www.shoreviewmn.gov/parks-rec/community-center/waterpark","notes":"Amenities include indoor aquatic park, lap swim, interactive play features, and zero entry. Pool CLOSED Aug 29th - Sept 16th, 2022 for maintenance.","free":false}},{"type":"Feature","geometry":{"type":"Point","coordinates":[-93.5939305039211,44.8064797435784]},"properties":{"kind":"relief","city":"Chaska","name":"Chaska Community Center","address":"1661 Park Ridge Dr","type":"Rec Com Cntr","hours":"Mon-Fri 5am-9pm, Sat 6am-9pm, Sun 8am-4pm.","phone":"952-448-5633","website":"https://www.chaskamn.com/673/Chaska-Community-Center","notes":"Indoor walking track is free to the public. Amenities also include: indoor swimming pools, gyms, fitness areas, and kids play spaces.","free":true}},{"type":"Feature","geometry":{"type":"Point","coordinates":[-93.1886997102382,44.9911630087019]},"properties":{"kind":"relief","city":"St Paul","name":"Bell Museum","address":"2088 Larpenteur Ave. W","type":"Misc Site","hours":"Wed-Sun 10am-4pm, Mon-Tues closed","phone":"612-626-9660","website":"https://www.bellmuseum.umn.edu/","notes":"Special exhibits, events, and planetarium may require reservations and/or additional fee; call facility or check online.","free":false}},{"type":"Feature","geometry":{"type":"Point","coordinates":[-93.2608593177422,44.9485265951109]},"properties":{"kind":"relief","city":"Minneapolis","name":"Midtown Global Market","address":"920 E. Lake St.","type":"Shopping Mall","hours":"Mon-Sat 10am-8pm, Sun 11am-6pm.","phone":"612-872-4041","website":"https://midtownglobalmarket.org/","notes":"Customers can park for free in the ramp. Individual vendor/store hours may vary.","free":true}},{"type":"Feature","geometry":{"type":"Point","coordinates":[-93.1633472301424,45.0034341583543]},"properties":{"kind":"relief","city":"Roseville","name":"HarMar Mall","address":"2100 Snelling Ave. N","type":"Shopping Mall","hours":"Mon-Fri 10am-9pm, Sat 10am-6pm, Sun 12-5pm","phone":"651-631-0340","website":"https://www.frpltd.com/properties/harmar/directory","notes":"Individual vendor/store hours may vary. Indoor public restrooms available.","free":true}},{"type":"Feature","geometry":{"type":"Point","coordinates":[-93.2679871667217,44.9645717595353]},"properties":{"kind":"relief","city":"Minneapolis","name":"Peace House Community","address":"1816 Portland Ave.,","type":"Rec Com Cntr","hours":"Mon-Fri 9:30am-2:30pm; closed Sat-Sun.","phone":"612-870-7263","website":"https://peacehousecommunity.org/","notes":"Partners with Loaves and Fishes to serve free community meals Mon-Fri 5pm-6pm. Email: contact@peacehousecommunity.org.","free":true}},{"type":"Feature","geometry":{"type":"Point","coordinates":[-93.2134902115698,44.9727984116894]},"properties":{"kind":"relief","city":"Minneapolis","name":"The Market at Malcolm Yards","address":"501 30th Ave. SE","type":"Shopping Mall","hours":"Sun-Thu 11am-9pm, Fri-Sat 11am-10pm.","phone":"612-886-1022","website":"https://malcolmyards.market/","notes":null,"free":true}},{"type":"Feature","geometry":{"type":"Point","coordinates":[-93.4329588630114,44.8629045761504]},"properties":{"kind":"relief","city":"Eden Prairie","name":"Asia Mall","address":"12160 Technology Dr.","type":"Shopping Mall","hours":"Open daily 10am-10pm.","phone":"952-452-8750","website":"https://www.asiamallmn.com/","notes":null,"free":true}},{"type":"Feature","geometry":{"type":"Point","coordinates":[-93.2775247768017,44.9511869033725]},"properties":{"kind":"relief","city":"Minneapolis","name":"East Street Crossing","address":"2819 Nicollet Ave.","type":"Shopping Mall","hours":"Sun-Thur 11.30am-9pm, Fri-Sat 11.30am-10pm","phone":"612-345-4136","website":"https://eatstreetcrossing.com/","notes":null,"free":true}},{"type":"Feature","geometry":{"type":"Point","coordinates":[-93.8202115894053,44.835882982801]},"properties":{"kind":"relief","city":"Waconia","name":"Safari Island Community Center + Indoor Pool","address":"1600 Community Dr.","type":"Swimming Pool","hours":"Mon-Fri 5:30am-9pm, Sat 7am-8pm, Sun 8am-6pm","phone":"952-442-0695","website":"https://www.safariislandcommunitycenter.com/","notes":"Check website for facility closed/maintenance schedule. Amenities include: zero entry, water play features, hot tub, and hours for free lap swim. Pools are located within larger community center housing indoor playground, walking track, and gyms.","free":true}},{"type":"Feature","geometry":{"type":"Point","coordinates":[-93.5284258353261,44.7839954806877]},"properties":{"kind":"relief","city":"11.30am-9pm, Fri-Sat 11.30am-10pm","name":"Shakopee Indoor Aquatic Center","address":"1255 Fuller St. S","type":"Swimming Pool","hours":"Mon-Fri 5am-9pm, Sat 6am-8pm, Sun 8am-8pm. Call facility for pool hrs","phone":"952-233-9500","website":"https://www.shakopeemn.gov/recreation/community-center/indoor-aquatic-center","notes":"Indoor aquatic center is located within community center. Amenities include: zero depth entry, waterslide & play features, fitness areas, and community space for seniors.","free":false}},{"type":"Feature","geometry":{"type":"Point","coordinates":[-93.2529214701076,44.948118866798]},"properties":{"kind":"relief","city":"Minneapolis","name":"Mercado Central","address":"1515 E. Lake St.","type":"Shopping Mall","hours":"Open daily 10am-8pm","phone":"612-728-5485","website":"http://mimercadocentral.com/","notes":"Indoor shopping, food, and services.","free":true}},{"type":"Feature","geometry":{"type":"Point","coordinates":[-93.2771266462786,44.9849093146608]},"properties":{"kind":"relief","city":"Minneapolis","name":"Graze Collective and Food Hall","address":"520 N 4th St.","type":"Shopping Mall","hours":"Hours may vary. Sun-Thur 11am-9pm, Fri-Sat 11am-10pm","phone":"612-259-8965","website":"https://www.grazenorthloop.com/#","notes":null,"free":true}},{"type":"Feature","geometry":{"type":"Point","coordinates":[-93.5681453877869,45.0485914462496]},"properties":{"kind":"relief","city":"Medina","name":"HC Public Works Facility","address":"1600 Prairie Dr","type":"Govt Bldg","hours":"Mon-Fri 8am-4:30pm, Sat-Sun closed.","phone":null,"website":"https://www.hennepin.us/your-government/facilities/county-buildings","notes":null,"free":true}},{"type":"Feature","geometry":{"type":"Point","coordinates":[-93.2885589397881,44.999832916823]},"properties":{"kind":"relief","city":"Minneapolis","name":"Sanctuary Resource Center","address":"710 W. Broadway Ave","type":"Misc Site","hours":"Tue/Wed 2pm-5pm, Thur/Fri 11am-5pm. Check facility for hrs","phone":"612-223-3682","website":"https://www.northpointhealth.org/about-us/our-locations/northpoint-locations","notes":null,"free":true}},{"type":"Feature","geometry":{"type":"Point","coordinates":[-93.3076365705106,44.9911732900771]},"properties":{"kind":"relief","city":"Minneapolis","name":"NorthPoint Human Services & Conference Center","address":"1256 Penn Ave. N.","type":"Govt Bldg","hours":"Mon-Fri 8:30am-5pm, Sat-Sun closed.","phone":null,"website":"https://www.northpointhealth.org/about-us/our-locations/northpoint-locations","notes":null,"free":true}},{"type":"Feature","geometry":{"type":"Point","coordinates":[-93.3088489289855,44.991803057531]},"properties":{"kind":"relief","city":"Minneapolis","name":"NorthPoint Community Food Shelf","address":"2220 Plymouth Ave. N.","type":"Govt Bldg","hours":"Mon-Thu 9am-4pm, Fri-Sun closed.","phone":null,"website":"https://www.northpointhealth.org/helping-our-neighbors/support-everyday-life/community-food-shelf","notes":null,"free":true}},{"type":"Feature","geometry":{"type":"Point","coordinates":[-93.5548943544799,44.866576411245]},"properties":{"kind":"relief","city":"Hennepin County","name":"Unnamed location","address":"Address not recorded","type":"Public building","hours":null,"phone":null,"website":null,"notes":null,"free":true}},{"type":"Feature","geometry":{"type":"Point","coordinates":[-93.2397755345694,45.0200831999951]},"properties":{"kind":"relief","city":"Minneapolis","name":"Audubon Recreation Center","address":"1320 29th Ave. NE","type":"Rec Com Cntr","hours":"Mon-Thurs 12-8pm, Fri 12pm-6pm, Sat-Sun closed.","phone":"612-370-4910","website":"https://www.minneapolisparks.org/parks-destinations/recreation_centers_program_facilities/audubon_recreation_center/","notes":"Air conditioned facility; may be open additional hours for specific programs.","free":true}},{"type":"Feature","geometry":{"type":"Point","coordinates":[-93.2997033087026,44.9824992779894]},"properties":{"kind":"relief","city":"Minneapolis","name":"Harrison Recreation Center","address":"503 N. Irving Ave.","type":"Rec Com Cntr","hours":"Mon-Thurs 12-8pm, Fri 12pm-6pm, Sat-Sun closed.","phone":"612-370-4951","website":"https://www.minneapolisparks.org/parks-destinations/recreation_centers_program_facilities/harrison_recreation_center/","notes":"Air conditioned facility; may be open additional hours for specific programs.","free":true}},{"type":"Feature","geometry":{"type":"Point","coordinates":[-93.2611311084745,44.9183928357407]},"properties":{"kind":"relief","city":"Minneapolis","name":"McRae Recreation Center","address":"906 E. 47th St.","type":"Rec Com Cntr","hours":"Mon-Thurs 12-8pm, Fri 12pm-6pm, Sat-Sun closed.","phone":"612-370-4909","website":"https://www.minneapolisparks.org/parks-destinations/recreation_centers_program_facilities/mcrae_recreation_center/","notes":"Air conditioned facility; may be open additional hours for specific programs.","free":true}},{"type":"Feature","geometry":{"type":"Point","coordinates":[-93.263351550914,44.932073606479]},"properties":{"kind":"relief","city":"Minneapolis","name":"Phelps Recreation Center","address":"701 E. 39th St.","type":"Rec Com Cntr","hours":"Hours vary; call facility or check website.","phone":"651-726-2582 (Boys & Girls Club); 612-370-3866 (Rec Center)","website":"https://www.minneapolisparks.org/parks-destinations/recreation_centers_program_facilities/phelps_recreation_center/","notes":"Air conditioned facility; may be open additional hours for specific programs.","free":true}},{"type":"Feature","geometry":{"type":"Point","coordinates":[-93.2311393862386,44.9858592744219]},"properties":{"kind":"relief","city":"Minneapolis","name":"Van Cleve Recreation Center","address":"901 15th Ave. SE","type":"Rec Com Cntr","hours":"Mon-Thurs 12-8pm, Fri 12pm-6pm, Sat-Sun closed.","phone":"612-370-4926","website":"https://www.minneapolisparks.org/parks-destinations/recreation_centers_program_facilities/van_cleve_recreation_center/","notes":"Air conditioned facility; may be open additional hours for specific programs.","free":true}},{"type":"Feature","geometry":{"type":"Point","coordinates":[-93.2846271002488,44.9553142011137]},"properties":{"kind":"relief","city":"Minneapolis","name":"Whittier Recreation Center","address":"425 W. 26th St.","type":"Rec Com Cntr","hours":"Mon-Thurs 12-8pm, Fri-Sat 12pm-6pm, Sun closed.","phone":"612-370-4966","website":"https://www.minneapolisparks.org/parks-destinations/recreation_centers_program_facilities/whittier_recreation_center/","notes":"Air conditioned facility; may be open additional hours for specific programs.","free":true}},{"type":"Feature","geometry":{"type":"Point","coordinates":[-93.1743628582493,44.9037272253289]},"properties":{"kind":"relief","city":"Saint Paul","name":"Saint Paul Jewish Community Center","address":"1375 Saint Paul Ave.","type":"Rec Com Cntr","hours":"Hours vary; call facility or check website.","phone":"651-448-2545","website":"https://minnesotajcc.org/locations/capp","notes":null,"free":false}},{"type":"Feature","geometry":{"type":"Point","coordinates":[-93.1751592002773,44.9562880524431]},"properties":{"kind":"relief","city":"Saint Paul","name":"Saint Paul Midway YMCA","address":"1761 University Ave. West","type":"Rec Com Cntr","hours":"Mon-Fri 5am-9pm, Sat-Sun 7am-5pm","phone":"651-646-4557","website":"https://www.ymcanorth.org/locations/st_paul_midway_ymca","notes":null,"free":true}},{"type":"Feature","geometry":{"type":"Point","coordinates":[-93.2877489204593,44.9416780971235]},"properties":{"kind":"relief","city":"Minneapolis","name":"Painter Recreation Center","address":"620 W. 34th St.","type":"Rec Com Cntr","hours":"Mon-Thurs 12-8pm, Fri 12-6pm, Sat-Sun closed.","phone":"612-370-4911","website":"https://www.minneapolisparks.org/parks-destinations/recreation_centers_program_facilities/painter_recreation_center/","notes":"Air conditioned facility; may be open additional hours for specific programs.","free":true}},{"type":"Feature","geometry":{"type":"Point","coordinates":[-93.2587762337315,44.9535439858454]},"properties":{"kind":"relief","city":"Minneapolis","name":"Stewart Recreation Center","address":"2700 S. 12th Ave.","type":"Rec Com Cntr","hours":"Mon-Thurs 12pm-8pm, Fri 12pm-6pm, Sat & Sun closed.","phone":"612-370-4932","website":"https://www.minneapolisparks.org/parks-destinations/recreation_centers_program_facilities/stewart_recreation_center/","notes":"Air conditioned facility with indoor swimming pool; may be open additional hours for specific programs.","free":true}}]}